COMMENT,ORIGINATOR,NORAD_CAT_ID,OBJECT_NAME,OBJECT_TYPE,CLASSIFICATION_TYPE,INTLDES,EPOCH,EPOCH_MICROSECONDS,MEAN_MOTION,ECCENTRICITY,INCLINATION,RA_OF_ASC_NODE,ARG_OF_PERICENTER,MEAN_ANOMALY,EPHEMERIS_TYPE,ELEMENT_SET_NO,REV_AT_EPOCH,BSTAR,MEAN_MOTION_DOT,MEAN_MOTION_DDOT,FILE,TLE_LINE0,TLE_LINE1,TLE_LINE2,OBJECT_ID,OBJECT_NUMBER,SEMIMAJOR_AXIS,PERIOD,APOGEE,PERIGEE,DECAYED,date
GENERATED VIA SPACETRACK.ORG API,18 SPCS,48904,SPACEBEE-111,PAYLOAD,U,21059AB,2023/3/14 3:16,331776,15.26629314,0.000948,97.5838,209.2364,241.8878,118.1403,0,999,9492,0.0016777,0.00044158,0,3859800,0 SPACEBEE-111,1 48904U 21059AB  23073.13656634  .00044158  00000-0  16777-2 0  9993,2 48904  97.5838 209.2364 0009480 241.8878 118.1403 15.26629314 94923,2021-059AB,48904,6864.034,94.325,492.406,479.392,0,
GENERATED VIA SPACETRACK.ORG API,18 SPCS,48904,SPACEBEE-111,PAYLOAD,U,21059AB,2023/3/14 7:59,689088,15.26647983,0.0009487,97.5838,209.4361,241.3473,118.6812,0,999,9495,0.0017245,0.00045426,0,3860373,0 SPACEBEE-111,1 48904U 21059AB  23073.33320242  .00045426  00000-0  17245-2 0  9998,2 48904  97.5838 209.4361 0009487 241.3473 118.6812 15.26647983 94959,2021-059AB,48904,6863.978,94.324,492.355,479.331,0,
GENERATED VIA SPACETRACK.ORG API,18 SPCS,48904,SPACEBEE-111,PAYLOAD,U,21059AB,2023/3/15 9:09,840672,15.26757772,0.0009431,97.5836,210.5013,237.7278,122.3047,0,999,9511,0.0019676,0.00052057,0,3861132,0 SPACEBEE-111,1 48904U 21059AB  23074.38188473  .00052057  00000-0  19676-2 0  9990,2 48904  97.5836 210.5013 0009431 237.7278 122.3047 15.26757772 95114,2021-059AB,48904,6863.649,94.318,491.987,479.041,0,
GENERATED VIA SPACETRACK.ORG API,18 SPCS,48904,SPACEBEE-111,PAYLOAD,U,21059AB,2023/3/15 9:09,840672,15.26757772,0.0009431,97.5836,210.5013,237.7278,122.3047,0,999,9511,0.0019676,0.00052057,0,3861350,0 SPACEBEE-111,1 48904U 21059AB  23074.38188473  .00052057  00000-0  19676-2 0  9990,2 48904  97.5836 210.5013 0009431 237.7278 122.3047 15.26757772 95114,2021-059AB,48904,6863.649,94.318,491.987,479.041,0,
GENERATED VIA SPACETRACK.ORG API,18 SPCS,48904,SPACEBEE-111,PAYLOAD,U,21059AB,2023/3/15 21:44,381056,15.26812373,0.0009398,97.5838,211.0339,235.8334,124.2014,0,999,9519,0.001829,0.00048441,0,3861599,0 SPACEBEE-111,1 48904U 21059AB  23074.90619654  .00048441  00000-0  18290-2 0  9991,2 48904  97.5838 211.0339 0009398 235.8334 124.2014 15.26812373 95199,2021-059AB,48904,6863.486,94.314,491.801,478.9,0,
GENERATED VIA SPACETRACK.ORG API,18 SPCS,48904,SPACEBEE-111,PAYLOAD,U,21059AB,2023/3/16 8:45,5728,15.26864697,0.0009365,97.5836,211.5,234.2632,125.7735,0,999,9526,0.0020333,0.00053985,0,3862295,0 SPACEBEE-111,1 48904U 21059AB  23075.36495377  .00053985  00000-0  20333-2 0  9996,2 48904  97.5836 211.5000 0009365 234.2632 125.7735 15.26864697 95265,2021-059AB,48904,6863.329,94.311,491.621,478.766,0,
GENERATED VIA SPACETRACK.ORG API,18 SPCS,48904,SPACEBEE-111,PAYLOAD,U,21059AB,2023/3/16 19:46,616064,15.26896077,0.0009359,97.5835,211.9664,232.8674,127.171,0,999,9533,0.0014101,0.00037368,0,3862411,0 SPACEBEE-111,1 48904U 21059AB  23075.82369926  .00037368  00000-0  14101-2 0  9990,2 48904  97.5835 211.9664 0009359 232.8674 127.1710 15.26896077 95331,2021-059AB,48904,6863.235,94.309,491.523,478.676,0,
GENERATED VIA SPACETRACK.ORG API,18 SPCS,48904,SPACEBEE-111,PAYLOAD,U,21059AB,2023/3/16 21:20,774400,15.26900807,0.0009389,97.5838,212.0329,232.8966,127.1415,0,999,9534,0.0014137,0.0003747,0,3862592,0 SPACEBEE-111,1 48904U 21059AB  23075.88923350  .00037470  00000-0  14137-2 0  9996,2 48904  97.5838 212.0329 0009389 232.8966 127.1415 15.26900807 95341,2021-059AB,48904,6863.221,94.309,491.529,478.642,0,
GENERATED VIA SPACETRACK.ORG API,18 SPCS,48904,SPACEBEE-111,PAYLOAD,U,21059AB,2023/3/17 8:21,340160,15.26934531,0.0009429,97.5837,212.4991,231.5187,128.5206,0,999,9541,0.001349,0.0003578,0,3863278,0 SPACEBEE-111,1 48904U 21059AB  23076.34796690  .00035780  00000-0  13490-2 0  9996,2 48904  97.5837 212.4991 0009429 231.5187 128.5206 15.26934531 95417,2021-059AB,48904,6863.12,94.307,491.456,478.513,0,
GENERATED VIA SPACETRACK.ORG API,18 SPCS,48904,SPACEBEE-111,PAYLOAD,U,21059AB,2023/3/17 20:55,879712,15.26977702,0.0009448,97.5837,213.0318,229.9342,130.1069,0,999,9549,0.0014843,0.00039447,0,3863393,0 SPACEBEE-111,1 48904U 21059AB  23076.87222083  .00039447  00000-0  14843-2 0  9991,2 48904  97.5837 213.0318 0009448 229.9342 130.1069 15.26977702 95493,2021-059AB,48904,6862.99,94.304,491.339,478.371,0,
GENERATED VIA SPACETRACK.ORG API,18 SPCS,48904,SPACEBEE-111,PAYLOAD,U,21059AB,2023/3/17 20:55,879712,15.26977702,0.0009448,97.5837,213.0318,229.9342,130.1069,0,999,9549,0.0014843,0.00039447,0,3863544,0 SPACEBEE-111,1 48904U 21059AB  23076.87222083  .00039447  00000-0  14843-2 0  9991,2 48904  97.5837 213.0318 0009448 229.9342 130.1069 15.26977702 95493,2021-059AB,48904,6862.99,94.304,491.339,478.371,0,
GENERATED VIA SPACETRACK.ORG API,18 SPCS,48904,SPACEBEE-111,PAYLOAD,U,21059AB,2023/3/18 22:05,509728,15.27054827,0.0009432,97.584,214.0974,226.3336,133.7121,0,999,9565,0.0013753,0.00036617,0,3864479,0 SPACEBEE-111,1 48904U 21059AB  23077.92068877  .00036617  00000-0  13753-2 0  9992,2 48904  97.5840 214.0974 0009432 226.3336 133.7121 15.27054827 95654,2021-059AB,48904,6862.759,94.299,491.097,478.151,0,
GENERATED VIA SPACETRACK.ORG API,18 SPCS,48904,SPACEBEE-111,PAYLOAD,U,21059AB,2023/3/19 2:48,132320,15.27069747,0.0009446,97.584,214.297,225.6144,134.4322,0,999,9568,0.0013822,0.00036818,0,3864597,0 SPACEBEE-111,1 48904U 21059AB  23078.11727005  .00036818  00000-0  13822-2 0  9999,2 48904  97.5840 214.2970 0009446 225.6144 134.4322 15.27069747 95687,2021-059AB,48904,6862.714,94.298,491.062,478.097,0,
GENERATED VIA SPACETRACK.ORG API,18 SPCS,48904,SPACEBEE-111,PAYLOAD,U,21059AB,2023/3/19 9:06,22464,15.27091331,0.000945,97.5842,214.5634,224.7676,135.28,0,999,9572,0.0013729,0.00036593,0,3865049,0 SPACEBEE-111,1 48904U 21059AB  23078.37937526  .00036593  00000-0  13729-2 0  9994,2 48904  97.5842 214.5634 0009450 224.7676 135.2800 15.27091331 95723,2021-059AB,48904,6862.65,94.297,491,478.03,0,
GENERATED VIA SPACETRACK.ORG API,18 SPCS,48904,SPACEBEE-111,PAYLOAD,U,21059AB,2023/3/19 21:41,890368,15.27133192,0.0009412,97.5847,215.0963,222.7785,137.2721,0,999,9580,0.0013641,0.00036403,0,3865354,0 SPACEBEE-111,1 48904U 21059AB  23078.90357512  .00036403  00000-0  13641-2 0  9997,2 48904  97.5847 215.0963 0009412 222.7785 137.2721 15.27133192 95801,2021-059AB,48904,6862.524,94.294,490.848,477.93,0,
GENERATED VIA SPACETRACK.ORG API,18 SPCS,48904,SPACEBEE-111,PAYLOAD,U,21059AB,2023/3/20 3:58,835296,15.27156412,0.0009422,97.5846,215.3626,221.8786,138.1732,0,999,9584,0.0015191,0.00040599,0,3865483,0 SPACEBEE-111,1 48904U 21059AB  23079.16566939  .00040599  00000-0  15191-2 0  9994,2 48904  97.5846 215.3626 0009422 221.8786 138.1732 15.27156412 95847,2021-059AB,48904,6862.455,94.293,490.786,477.854,0,
GENERATED VIA SPACETRACK.ORG API,18 SPCS,48904,SPACEBEE-111,PAYLOAD,U,21059AB,2023/3/20 8:41,342464,15.27173082,0.0009421,97.5846,215.5624,221.2326,138.8202,0,999,9587,0.0015105,0.00040388,0,3865912,0 SPACEBEE-111,1 48904U 21059AB  23079.36223776  .00040388  00000-0  15105-2 0  9996,2 48904  97.5846 215.5624 0009421 221.2326 138.8202 15.27173082 95874,2021-059AB,48904,6862.405,94.292,490.735,477.805,0,
GENERATED VIA SPACETRACK.ORG API,18 SPCS,48904,SPACEBEE-111,PAYLOAD,U,21059AB,2023/3/20 14:59,765536,15.27191175,0.0009423,97.5847,215.8288,220.2697,139.7844,0,999,9591,0.0013899,0.00037162,0,3866115,0 SPACEBEE-111,1 48904U 21059AB  23079.62432599  .00037162  00000-0  13899-2 0  9994,2 48904  97.5847 215.8288 0009423 220.2697 139.7844 15.27191175 95916,2021-059AB,48904,6862.351,94.291,490.682,477.749,0,
GENERATED VIA SPACETRACK.ORG API,18 SPCS,48904,SPACEBEE-111,PAYLOAD,U,21059AB,2023/3/21 8:16,135104,15.27256229,0.0009437,97.5849,216.5615,218.2174,141.8396,0,999,9602,0.0015693,0.00042078,0,3866627,0 SPACEBEE-111,1 48904U 21059AB  23080.34504786  .00042078  00000-0  15693-2 0  9999,2 48904  97.5849 216.5615 0009437 218.2174 141.8396 15.27256229 96023,2021-059AB,48904,6862.156,94.287,490.497,477.545,0,
GENERATED VIA SPACETRACK.ORG API,18 SPCS,48904,SPACEBEE-111,PAYLOAD,U,21059AB,2023/3/21 8:16,135104,15.27256229,0.0009437,97.5849,216.5615,218.2174,141.8396,0,999,9602,0.0015693,0.00042078,0,3866730,0 SPACEBEE-111,1 48904U 21059AB  23080.34504786  .00042078  00000-0  15693-2 0  9999,2 48904  97.5849 216.5615 0009437 218.2174 141.8396 15.27256229 96023,2021-059AB,48904,6862.156,94.287,490.497,477.545,0,
GENERATED VIA SPACETRACK.ORG API,18 SPCS,48904,SPACEBEE-111,PAYLOAD,U,21059AB,2023/3/22 20:26,638304,15.27391897,0.0009295,97.5855,218.0934,214.0386,146.0258,0,999,9625,0.0016671,0.00044905,0,3867772,0 SPACEBEE-111,1 48904U 21059AB  23081.85191711  .00044905  00000-0  16671-2 0  9994,2 48904  97.5855 218.0934 0009295 214.0386 146.0258 15.27391897 96252,2021-059AB,48904,6861.749,94.278,489.992,477.236,0,
GENERATED VIA SPACETRACK.ORG API,18 SPCS,48904,SPACEBEE-111,PAYLOAD,U,21059AB,2023/3/22 22:01,950272,15.27397651,0.0009314,97.5856,218.1598,213.6247,146.4401,0,999,9626,0.0016514,0.00044487,0,3868201,0 SPACEBEE-111,1 48904U 21059AB  23081.91742998  .00044487  00000-0  16514-2 0  9991,2 48904  97.5856 218.1598 0009314 213.6247 146.4401 15.27397651 96262,2021-059AB,48904,6861.732,94.278,489.988,477.206,0,
GENERATED VIA SPACETRACK.ORG API,18 SPCS,48904,SPACEBEE-111,PAYLOAD,U,21059AB,2023/3/23 7:27,404768,15.27429844,0.0009375,97.5859,218.5596,211.6634,148.4042,0,999,9632,0.0014839,0.00039983,0,3868494,0 SPACEBEE-111,1 48904U 21059AB  23082.31050237  .00039983  00000-0  14839-2 0  9997,2 48904  97.5859 218.5596 0009375 211.6634 148.4042 15.27429844 96322,2021-059AB,48904,6861.636,94.276,489.934,477.068,0,
